{"type":"FeatureCollection","features":[{"type":"Feature","properties":{"nombre":"Caribe","color":"#F4511E","nivel_impacto":"alto"},"geometry":{"type":"MultiPolygon","coordinates":[[[[-76.435536,8.902574],[-76.264272,8.996324],[-76.168121,9.246975],[-75.943798,9.440734],[-75.811025,9.443549],[-75.798207,9.418199],[-75.852854,9.412055],[-75.811879,9.391547],[-75.620633,9.452853],[-75.576367,9.621086],[-75.618031,9.689276],[-75.705137,9.700662],[-75.639945,9.783263],[-75.576191,10.041847],[-75.589361,10.128261],[-75.53067,10.240668],[-75.703577,10.134428],[-75.592152,10.30272],[-75.515696,10.318996],[-75.523834,10.391506],[-75.578481,10.398342],[-75.502756,10.487738],[-75.522206,10.432929],[-75.493276,10.434638],[-75.489125,10.50137],[-75.524526,10.567084],[-75.403798,10.680121],[-75.273752,10.74433],[-75.249501,10.706773],[-75.222239,10.734687],[-75.267405,10.795315],[-75.04955,10.90119],[-75.02359,10.974311],[-74.86151,11.048834],[-74.844372,11.10967],[-74.522951,10.995924],[-74.29783,10.991499],[-74.491567,10.979478],[-74.517445,10.926663],[-74.48176,10.850816],[-74.525014,10.88345],[-74.596995,10.867825],[-74.598459,10.781928],[-74.56428,10.830959],[-74.543813,10.76203],[-74.499664,10.764716],[-74.509633,10.84455],[-74.456614,10.748033],[-74.39509,10.749498],[-74.214915,11.086982],[-74.233632,11.241156],[-74.153391,11.343655],[-74.004628,11.355292],[-73.826039,11.27676],[-73.705149,11.268256],[-73.292388,11.294013],[-72.741322,11.707953],[-72.263051,11.885972],[-72.138661,12.10456],[-72.17276,12.221259],[-72.138661,12.256049],[-71.969635,12.255113],[-72.015126,12.193996],[-71.937611,12.166449],[-71.868031,12.208238],[-71.871083,12.256049],[-71.96052,12.282701],[-71.829091,12.376207],[-71.843129,12.33808],[-71.802846,12.323676],[-71.732533,12.410224],[-71.693593,12.365302],[-71.63093,12.427395],[-71.679107,12.416978],[-71.686147,12.454657],[-71.740793,12.419908],[-71.675608,12.468329],[-71.511301,12.443264],[-71.227162,12.305406],[-71.107493,12.074937],[-71.138092,12.015815],[-71.409668,11.812303],[-71.990614,11.649058],[-72.267083,11.154902],[-72.499317,11.120795],[-72.57647,10.957368],[-72.682975,10.855618],[-72.914899,10.432904],[-72.98554,9.812167],[-73.107652,9.577995],[-73.390839,9.194504],[-73.363645,9.165033],[-73.436597,9.116343],[-73.426701,8.781945],[-73.559846,8.622575],[-73.491814,8.462223],[-73.527212,8.380522],[-73.45564,8.324118],[-73.406289,8.373856],[-73.419932,8.455453],[-73.35668,8.439175],[-73.408563,8.127592],[-73.375542,8.029898],[-73.289268,7.985689],[-73.290818,7.945949],[-73.350582,7.896469],[-73.396212,7.747331],[-73.483778,7.681547],[-73.598448,7.737022],[-73.751901,7.740897],[-73.744227,7.830737],[-73.670304,7.928974],[-73.728517,7.987239],[-73.785646,8.161466],[-73.855357,8.105449],[-73.823292,7.672038],[-73.913183,7.494866],[-73.930236,7.300795],[-74.252878,6.996059],[-74.343906,7.010425],[-74.39827,7.168555],[-74.36437,7.48882],[-74.489065,7.357768],[-74.581773,7.46678],[-74.573556,7.60597],[-74.4809,7.724232],[-74.552472,7.929206],[-74.834884,8.188725],[-74.942578,8.072583],[-75.228762,8.045969],[-75.458567,7.807792],[-75.590006,7.569512],[-75.769426,7.498897],[-75.856992,7.367251],[-76.40776,7.380351],[-76.497573,7.600002],[-76.505118,7.740742],[-76.41949,7.9791],[-76.419387,8.098653],[-76.213689,8.452921],[-76.229114,8.57759],[-76.388846,8.738898],[-76.435536,8.902574]]],[[[-75.57583,10.377872],[-75.546263,10.339267],[-75.590661,10.319044],[-75.57583,10.377872]]],[[[-81.719797,12.543158],[-81.686391,12.580064],[-81.717397,12.502427],[-81.719797,12.543158]]],[[[-81.378733,13.362698],[-81.352162,13.334174],[-81.382639,13.319159],[-81.378733,13.362698]]],[[[-80.089426,13.57685],[-80.090891,13.57803],[-80.089915,13.578355],[-80.089426,13.57685]]]]}},{"type":"Feature","properties":{"nombre":"Pacifica","color":"#F4A261","nivel_impacto":"moderado"},"geometry":{"type":"MultiPolygon","coordinates":[[[[-78.699352,1.302041],[-78.828684,1.434312],[-78.860707,1.558498],[-78.899599,1.545328],[-79.021512,1.63831],[-78.846052,1.821585],[-78.57123,1.782207],[-78.5454,1.91474],[-78.591367,1.896843],[-78.608022,2.027981],[-78.665606,1.982915],[-78.703159,2.189805],[-78.574086,2.433173],[-78.55899,2.381537],[-78.525045,2.495507],[-78.346018,2.647986],[-78.25475,2.541897],[-78.246931,2.663601],[-78.207753,2.53734],[-78.132476,2.492743],[-78.085276,2.516059],[-78.096105,2.651451],[-77.94984,2.674518],[-77.888051,2.634711],[-77.904286,2.579983],[-77.83967,2.565863],[-77.760406,2.59162],[-77.751536,2.627265],[-77.812367,2.764472],[-77.733551,2.786119],[-77.785756,2.794827],[-77.764556,2.81566],[-77.688832,2.791734],[-77.723541,2.840155],[-77.636057,2.869615],[-77.70934,2.860663],[-77.710072,2.918118],[-77.643381,2.898139],[-77.6197,2.931586],[-77.633901,2.994859],[-77.721791,2.982001],[-77.479684,3.227464],[-77.541795,3.246081],[-77.464864,3.301626],[-77.457387,3.356147],[-77.380971,3.387641],[-77.318918,3.319973],[-77.367055,3.402086],[-77.33316,3.411811],[-77.33316,3.511786],[-77.264272,3.470852],[-77.29898,3.511786],[-77.274892,3.532782],[-77.321767,3.547838],[-77.209625,3.580634],[-77.189198,3.662584],[-77.118276,3.678046],[-77.170806,3.677191],[-77.126454,3.717231],[-77.185414,3.703599],[-77.200795,3.743476],[-77.12564,3.733547],[-77.174916,3.758205],[-77.126454,3.778713],[-77.15038,3.813666],[-77.120269,3.79914],[-77.114491,3.852607],[-77.031565,3.915839],[-77.126454,3.929511],[-77.123036,3.886135],[-77.253163,3.840806],[-77.311757,3.908433],[-77.300201,3.969143],[-77.209625,3.977281],[-77.243764,3.977281],[-77.189198,4.067328],[-77.264272,4.108222],[-77.264272,4.067328],[-77.318918,4.053046],[-77.346181,3.929511],[-77.43517,4.029364],[-77.408274,4.0456],[-77.426666,4.180365],[-77.348053,4.224677],[-77.29898,4.203192],[-77.236318,4.265326],[-77.336537,4.268744],[-77.387196,4.347235],[-77.312734,4.471381],[-77.318918,4.683661],[-77.29898,4.655707],[-77.291615,4.682074],[-77.325754,4.752509],[-77.258046,4.704088],[-77.348622,4.854193],[-77.372874,5.149156],[-77.346181,5.244778],[-77.408559,5.386176],[-77.380971,5.403022],[-77.462148,5.501044],[-77.559193,5.503079],[-77.490834,5.594794],[-77.33316,5.615302],[-77.24592,5.734198],[-77.353017,6.02619],[-77.366689,5.998928],[-77.484364,6.188788],[-77.483388,6.294338],[-77.41511,6.239081],[-77.380971,6.300523],[-77.399281,6.387641],[-77.360463,6.389879],[-77.380971,6.444525],[-77.345367,6.566107],[-77.41511,6.636298],[-77.411244,6.693793],[-77.462636,6.720689],[-77.537994,6.663642],[-77.593251,6.828111],[-77.671051,6.879706],[-77.696278,6.849189],[-77.665028,7.01557],[-77.895839,7.235098],[-77.820181,7.476547],[-77.75512,7.486107],[-77.731245,7.530343],[-77.764215,7.705732],[-77.679931,7.670954],[-77.579989,7.528379],[-77.339745,7.707231],[-77.379897,7.77441],[-77.300419,7.902103],[-77.16327,7.939258],[-77.316904,8.250841],[-77.374368,8.289314],[-77.422324,8.45641],[-77.488728,8.473644],[-77.434003,8.62826],[-77.366689,8.678412],[-77.274729,8.495795],[-77.144439,8.421088],[-77.052805,8.276313],[-76.985458,8.25618],[-76.960517,8.169553],[-77.021676,7.898485],[-77.120171,7.84239],[-77.118776,7.767356],[-76.692497,7.354435],[-76.542945,7.266999],[-76.508348,7.186306],[-76.546097,6.991021],[-76.683402,7.026031],[-76.831377,6.999728],[-76.801792,6.87449],[-76.97279,6.810205],[-76.969947,6.704656],[-76.932172,6.672358],[-76.90574,6.693649],[-76.866285,6.639802],[-76.893182,6.582157],[-76.788098,6.483455],[-76.79802,6.300598],[-76.713736,6.178383],[-76.277173,6.187323],[-76.188729,5.998471],[-76.111266,5.975579],[-76.13558,5.837241],[-76.087572,5.727764],[-76.097908,5.643428],[-76.042485,5.577334],[-76.093257,5.455378],[-76.165552,5.408662],[-76.179918,5.30872],[-76.034578,4.961067],[-75.981119,4.872623],[-75.922182,4.872416],[-75.924094,4.774928],[-75.713952,4.712943],[-75.716019,4.658786],[-75.824849,4.664444],[-75.862108,4.612949],[-75.890375,4.423632],[-75.809062,4.397484],[-75.787927,4.350846],[-75.838156,4.121816],[-75.745449,4.041511],[-75.796143,4.008076],[-75.988793,3.646754],[-76.112997,3.105909],[-76.044578,3.035526],[-76.024424,2.911864],[-75.806039,2.719989],[-75.781028,2.669605],[-75.823377,2.530388],[-75.795342,2.474733],[-75.877534,2.426622],[-75.966184,2.490959],[-76.233662,2.351795],[-76.378898,2.419956],[-76.357323,2.271541],[-76.416751,2.131446],[-76.5508,2.121576],[-76.600099,1.971818],[-76.576897,1.879679],[-76.381766,1.659072],[-76.145295,1.575511],[-76.282289,1.33997],[-76.295337,1.184786],[-76.255004,1.137502],[-76.159609,1.132644],[-76.06052,1.043658],[-76.209839,0.972137],[-76.492406,1.024589],[-76.546175,1.117607],[-76.520466,1.301523],[-76.588369,1.40746],[-76.654489,1.437742],[-76.77275,1.313977],[-76.970103,1.295218],[-76.976898,1.238013],[-77.0887,1.186078],[-77.08671,1.073423],[-77.028833,1.023194],[-77.118776,0.835195],[-77.238562,0.697167],[-77.112239,0.594279],[-77.103856,0.354141],[-77.206936,0.334193],[-77.397467,0.387626],[-77.468057,0.650866],[-77.645566,0.716288],[-77.703185,0.843102],[-77.847983,0.809254],[-77.918262,0.874418],[-78.077943,0.900773],[-78.699352,1.302041]]],[[[-78.145086,2.673748],[-78.107289,2.512519],[-78.157582,2.518134],[-78.21642,2.596869],[-78.214868,2.681914],[-78.145086,2.673748]]],[[[-77.916371,2.697211],[-77.80842,2.578599],[-77.888051,2.593817],[-77.867502,2.639838],[-77.916371,2.697211]]],[[[-77.75414,2.617987],[-77.847076,2.648383],[-77.882558,2.724595],[-77.819203,2.696234],[-77.75414,2.617987]]],[[[-78.186612,2.990373],[-78.182026,2.942935],[-78.220289,2.933617],[-78.186612,2.990373]]],[[[-77.271718,4.25849],[-77.302968,4.217597],[-77.33316,4.244818],[-77.54955,4.204779],[-77.499664,4.260972],[-77.435618,4.25849],[-77.46288,4.285793],[-77.428131,4.285793],[-77.428131,4.34101],[-77.353017,4.265326],[-77.271718,4.25849]]]]}},{"type":"Feature","properties":{"nombre":"Andina","color":"#F4511E","nivel_impacto":"alto"},"geometry":{"type":"Polygon","coordinates":[[[-74.8246,3.107382],[-75.057609,2.748928],[-75.003194,2.638186],[-75.122386,2.534109],[-75.231449,2.531319],[-75.305966,2.345077],[-75.960164,1.573031],[-76.145295,1.575511],[-76.346936,1.638918],[-76.576897,1.879679],[-76.600719,1.95864],[-76.566975,2.100027],[-76.419438,2.126175],[-76.357323,2.271541],[-76.378898,2.419956],[-76.233662,2.351795],[-75.966184,2.490959],[-75.877534,2.426622],[-75.795342,2.474733],[-75.823377,2.530388],[-75.781028,2.669605],[-75.806039,2.719989],[-76.024424,2.911864],[-76.044578,3.035526],[-76.112997,3.105909],[-75.988793,3.646754],[-75.796143,4.008076],[-75.745449,4.041511],[-75.838156,4.121816],[-75.787927,4.350846],[-75.809062,4.397484],[-75.890375,4.423632],[-75.862108,4.612949],[-75.824849,4.664444],[-75.708087,4.667932],[-75.713952,4.712943],[-75.924094,4.774928],[-75.922182,4.872416],[-75.981119,4.872623],[-76.034578,4.961067],[-76.179918,5.30872],[-76.165552,5.408662],[-76.093257,5.455378],[-76.042485,5.577334],[-76.097908,5.643428],[-76.087572,5.727764],[-76.13558,5.837241],[-76.111266,5.975579],[-76.188729,5.998471],[-76.277173,6.187323],[-76.713736,6.178383],[-76.79802,6.300598],[-76.788098,6.483455],[-76.893182,6.582157],[-76.866285,6.639802],[-76.90574,6.693649],[-76.932172,6.672358],[-76.969947,6.704656],[-76.97279,6.810205],[-76.801792,6.87449],[-76.831377,6.999728],[-76.683402,7.026031],[-76.546097,6.991021],[-76.505273,7.074426],[-76.542945,7.266999],[-76.692497,7.354435],[-77.126372,7.780921],[-77.120171,7.84239],[-77.021676,7.898485],[-76.959871,8.065219],[-76.985458,8.25618],[-76.970123,8.26675],[-76.963124,8.203681],[-76.917592,8.188951],[-76.942535,8.128852],[-76.832265,8.136542],[-76.825429,8.103013],[-76.866444,8.061998],[-76.832265,8.027289],[-76.907704,8.044094],[-76.933705,7.964586],[-76.853586,7.912746],[-76.747141,7.940497],[-76.77481,8.416693],[-76.838612,8.500434],[-76.947174,8.545478],[-76.893707,8.620347],[-76.660227,8.687445],[-76.647328,8.747301],[-76.444831,8.869866],[-76.346316,8.674794],[-76.229114,8.57759],[-76.217332,8.410159],[-76.419387,8.098653],[-76.41949,7.9791],[-76.505118,7.740742],[-76.497573,7.600002],[-76.40776,7.380351],[-75.856992,7.367251],[-75.769426,7.498897],[-75.590006,7.569512],[-75.458567,7.807792],[-75.228762,8.045969],[-74.942578,8.072583],[-74.834884,8.188725],[-74.552472,7.929206],[-74.4809,7.724232],[-74.573556,7.60597],[-74.581773,7.46678],[-74.489065,7.357768],[-74.36437,7.48882],[-74.39827,7.168555],[-74.343906,7.010425],[-74.252878,6.996059],[-73.930236,7.300795],[-73.913183,7.494866],[-73.823292,7.672038],[-73.855357,8.105449],[-73.785646,8.161466],[-73.728517,7.987239],[-73.670304,7.928974],[-73.744227,7.830737],[-73.751901,7.740897],[-73.598448,7.737022],[-73.496103,7.678214],[-73.360504,7.800713],[-73.350582,7.896469],[-73.28578,7.972873],[-73.375542,8.029898],[-73.408563,8.127592],[-73.35668,8.439175],[-73.419932,8.455453],[-73.406289,8.373856],[-73.45564,8.324118],[-73.527212,8.380522],[-73.491814,8.462223],[-73.559846,8.622575],[-73.426701,8.781945],[-73.417012,9.150708],[-73.212245,9.173446],[-73.009725,9.295377],[-72.95531,9.103993],[-72.826687,9.141691],[-72.79103,9.113941],[-72.67543,8.651514],[-72.386766,8.338614],[-72.333849,8.065478],[-72.407074,8.043774],[-72.491204,7.937501],[-72.451774,7.832805],[-72.478698,7.484454],[-72.414619,7.413812],[-72.206208,7.381876],[-72.098256,7.086752],[-71.964021,7.005921],[-72.101692,6.729099],[-72.136289,6.504409],[-72.282042,6.422244],[-72.415729,6.204066],[-72.341031,6.078854],[-72.392759,5.900932],[-72.447381,5.854242],[-72.237652,5.68309],[-72.326458,5.499897],[-72.409011,5.563123],[-72.690183,5.277921],[-72.80847,5.383987],[-72.938256,5.240456],[-72.9535,5.146663],[-72.906113,5.083023],[-72.97368,4.978766],[-73.030937,4.985122],[-73.137727,4.22982],[-73.365671,4.322295],[-73.527651,4.299867],[-73.622374,4.483758],[-73.709578,4.51789],[-73.810683,4.420997],[-73.751901,4.202199],[-73.919178,4.15432],[-74.1233,4.005131],[-74.223552,4.009626],[-74.427777,3.679569],[-74.493561,3.704012],[-74.615905,3.485059],[-74.681353,3.210399],[-74.8246,3.107382]]]}},{"type":"Feature","properties":{"nombre":"Orinoquia","color":"#43B02A","nivel_impacto":"bajo"},"geometry":{"type":"Polygon","coordinates":[[[-74.869378,3.034285],[-74.681353,3.210399],[-74.615905,3.485059],[-74.493561,3.704012],[-74.427777,3.679569],[-74.223552,4.009626],[-74.1233,4.005131],[-73.919178,4.15432],[-73.751901,4.202199],[-73.810683,4.420997],[-73.709578,4.51789],[-73.622374,4.483758],[-73.527651,4.299867],[-73.365671,4.322295],[-73.137727,4.22982],[-73.030937,4.985122],[-72.97368,4.978766],[-72.906113,5.083023],[-72.9535,5.146663],[-72.938256,5.240456],[-72.80847,5.383987],[-72.690183,5.277921],[-72.409011,5.563123],[-72.326458,5.499897],[-72.237652,5.68309],[-72.447381,5.854242],[-72.392759,5.900932],[-72.341031,6.078854],[-72.415729,6.204066],[-72.282042,6.422244],[-72.136289,6.504409],[-72.101692,6.729099],[-71.964021,7.005921],[-71.848194,6.983864],[-71.620404,7.052129],[-71.4677,7.012441],[-71.292517,7.025774],[-71.275516,6.984381],[-71.184048,6.962574],[-70.703302,7.09993],[-70.578607,7.085822],[-70.510704,7.009702],[-70.319062,6.938286],[-70.129203,6.972547],[-69.443638,6.122237],[-69.331396,6.15637],[-69.246104,6.080664],[-69.061129,6.217839],[-68.635315,6.13588],[-68.449021,6.194998],[-68.304172,6.176988],[-68.146508,6.223781],[-67.977991,6.217839],[-67.827199,6.313414],[-67.573984,6.266234],[-67.449961,6.197943],[-67.491199,6.114486],[-67.422469,5.978241],[-67.625144,5.784506],[-67.64907,5.65609],[-67.617031,5.541601],[-67.652481,5.477961],[-67.809784,5.37882],[-67.843684,5.297249],[-67.793092,5.063335],[-67.875051,4.532644],[-67.793092,4.428981],[-67.799449,4.235324],[-67.716932,4.039878],[-67.876962,3.922732],[-67.950705,3.957485],[-67.999126,3.936375],[-68.013414,3.998464],[-68.048709,3.955935],[-68.092737,4.005441],[-68.183481,3.922112],[-68.188106,3.973169],[-68.252366,3.943222],[-68.267895,4.002728],[-68.355538,4.019858],[-68.372539,3.923585],[-68.444938,3.91263],[-68.438453,3.873071],[-68.546353,3.795944],[-68.688799,3.797805],[-68.744222,3.736206],[-68.810135,3.72799],[-68.804477,3.690137],[-68.937776,3.707345],[-68.962426,3.640941],[-69.040638,3.655204],[-69.090299,3.609367],[-69.105776,3.655824],[-69.183549,3.652103],[-69.279538,3.72892],[-69.430718,3.68608],[-69.474281,3.715742],[-69.612412,3.686339],[-69.65812,3.532472],[-69.722044,3.56862],[-69.86666,3.530612],[-69.8941,3.566449],[-69.962985,3.505006],[-70.082771,3.525496],[-70.068612,3.424623],[-70.119745,3.416639],[-70.151139,3.347884],[-70.116025,3.290161],[-70.129254,3.204275],[-70.159872,3.22771],[-70.163955,3.186292],[-70.248549,3.159368],[-70.308519,3.083946],[-70.263406,3.062914],[-70.281467,2.941965],[-70.499748,2.784533],[-70.684491,2.869412],[-70.734824,2.782518],[-70.748208,2.813937],[-70.889595,2.815875],[-70.904065,2.85763],[-70.923598,2.828458],[-70.9699,2.865381],[-70.980132,2.813007],[-70.986514,2.854684],[-71.041007,2.873158],[-71.22513,2.855072],[-71.293395,2.90543],[-71.329594,2.858095],[-71.443411,2.876259],[-71.622625,2.81572],[-71.649549,2.863366],[-71.683138,2.840085],[-71.743161,2.881995],[-71.759309,2.816728],[-71.792046,2.861195],[-71.980381,2.799106],[-72.121044,2.867086],[-72.192358,2.847863],[-72.193469,2.772958],[-72.247781,2.754871],[-72.252303,2.697613],[-72.283748,2.75239],[-72.309818,2.716734],[-72.366533,2.738076],[-72.55368,2.675444],[-72.535748,2.641596],[-72.576727,2.579584],[-72.610033,2.620512],[-72.641995,2.56279],[-72.670442,2.613898],[-72.737208,2.559534],[-72.819942,2.596741],[-72.937635,2.513645],[-72.930452,2.467757],[-73.144755,2.361717],[-73.215319,2.388382],[-73.250355,2.343785],[-73.426856,2.331021],[-73.444685,2.385901],[-73.455072,2.347196],[-73.598267,2.386366],[-73.66033,2.253403],[-73.661131,1.641967],[-73.889748,1.631425],[-74.510821,1.843919],[-74.584951,1.914871],[-74.615905,2.043131],[-74.543739,2.181934],[-74.659443,2.382646],[-74.596449,2.72123],[-74.712566,2.896955],[-74.897516,2.950725],[-74.869378,3.034285]]]}},{"type":"Feature","properties":{"nombre":"Amazonia","color":"#43B02A","nivel_impacto":"bajo"},"geometry":{"type":"Polygon","coordinates":[[[-69.399454,-1.182717],[-69.96495,-4.236484],[-70.030501,-4.131581],[-70.188398,-4.028952],[-70.216975,-3.924979],[-70.311104,-3.829274],[-70.377689,-3.818836],[-70.490886,-3.87847],[-70.734127,-3.782042],[-70.050629,-2.71513],[-70.094967,-2.632551],[-70.150468,-2.669242],[-70.183877,-2.619529],[-70.23607,-2.62511],[-70.273949,-2.546252],[-70.364615,-2.557621],[-70.357535,-2.486927],[-70.445256,-2.498503],[-70.578607,-2.405485],[-70.647595,-2.450754],[-70.706584,-2.328281],[-70.904556,-2.211078],[-71.021448,-2.196712],[-71.029691,-2.263995],[-71.119969,-2.252109],[-71.20906,-2.339236],[-71.42083,-2.37603],[-71.456486,-2.255107],[-71.498138,-2.315051],[-71.538394,-2.222964],[-71.67854,-2.169531],[-71.731405,-2.189891],[-71.746133,-2.132324],[-71.836205,-2.179762],[-71.948653,-2.324146],[-72.061514,-2.320012],[-72.176391,-2.410343],[-72.25096,-2.396287],[-72.378032,-2.450754],[-72.644321,-2.334068],[-72.71243,-2.422125],[-72.733721,-2.367555],[-72.761678,-2.402281],[-72.804673,-2.377787],[-72.935414,-2.425329],[-72.987556,-2.337686],[-73.05644,-2.299858],[-73.083829,-2.345127],[-73.158915,-2.293037],[-73.197775,-2.213559],[-73.111062,-2.073412],[-73.193021,-1.788675],[-73.257255,-1.742373],[-73.350531,-1.790639],[-73.530985,-1.673747],[-73.484528,-1.572461],[-73.497163,-1.477997],[-73.574212,-1.416915],[-73.562921,-1.372163],[-73.63656,-1.255168],[-73.754718,-1.183338],[-73.802545,-1.223645],[-73.857167,-1.210519],[-73.919902,-1.113781],[-73.981293,-1.107477],[-73.982792,-1.066239],[-74.037207,-1.079675],[-74.076895,-0.990894],[-74.119631,-1.02097],[-74.266754,-0.972291],[-74.344424,-0.858603],[-74.28913,-0.836279],[-74.385145,-0.72197],[-74.364888,-0.676185],[-74.417959,-0.542653],[-74.642313,-0.339771],[-74.790701,-0.31259],[-74.755329,-0.278276],[-74.824653,-0.170479],[-74.872712,-0.221949],[-74.933458,-0.209443],[-75.141688,-0.043459],[-75.222096,-0.0324],[-75.283488,-0.107021],[-75.464924,-0.039738],[-75.626774,0.078911],[-75.78971,0.084389],[-75.951974,0.203968],[-76.053467,0.363545],[-76.119561,0.351763],[-76.136304,0.396721],[-76.30048,0.461627],[-76.41639,0.401889],[-76.425692,0.242725],[-76.565425,0.21606],[-76.724537,0.277555],[-76.734355,0.233114],[-76.88246,0.240142],[-77.103856,0.354141],[-77.112239,0.594279],[-77.238562,0.697167],[-77.118776,0.835195],[-77.028833,1.023194],[-77.08671,1.073423],[-77.0887,1.186078],[-76.976898,1.238013],[-76.970103,1.295218],[-76.745723,1.329532],[-76.670483,1.433711],[-76.588369,1.40746],[-76.520466,1.301523],[-76.546175,1.117607],[-76.512456,1.038593],[-76.351019,0.976943],[-76.086384,1.011411],[-76.06052,1.043658],[-76.159609,1.132644],[-76.255004,1.137502],[-76.295337,1.184786],[-76.227073,1.46482],[-76.145295,1.575511],[-75.980576,1.563729],[-75.840998,1.680621],[-75.421463,2.247408],[-75.305966,2.345077],[-75.231449,2.531319],[-75.122386,2.534109],[-75.003194,2.638186],[-75.052907,2.768203],[-74.914414,2.945996],[-74.712566,2.896955],[-74.596449,2.72123],[-74.659443,2.382646],[-74.543739,2.181934],[-74.615905,2.043131],[-74.550534,1.871359],[-73.917834,1.634733],[-73.675058,1.624501],[-73.66033,2.253403],[-73.598267,2.386366],[-73.455072,2.347196],[-73.444685,2.385901],[-73.426856,2.331021],[-73.250355,2.343785],[-73.215319,2.388382],[-73.144755,2.361717],[-72.930452,2.467757],[-72.937635,2.513645],[-72.819942,2.596741],[-72.737208,2.559534],[-72.670442,2.613898],[-72.641995,2.56279],[-72.610033,2.620512],[-72.576727,2.579584],[-72.535748,2.641596],[-72.55368,2.675444],[-72.366533,2.738076],[-72.309818,2.716734],[-72.283748,2.75239],[-72.252303,2.697613],[-72.247781,2.754871],[-72.193469,2.772958],[-72.192358,2.847863],[-72.121044,2.867086],[-71.980381,2.799106],[-71.792046,2.861195],[-71.759309,2.816728],[-71.743161,2.881995],[-71.683138,2.840085],[-71.649549,2.863366],[-71.622625,2.81572],[-71.443411,2.876259],[-71.329594,2.858095],[-71.293395,2.90543],[-71.22513,2.855072],[-71.041007,2.873158],[-70.986514,2.854684],[-70.980132,2.813007],[-70.9699,2.865381],[-70.923598,2.828458],[-70.904065,2.85763],[-70.889595,2.815875],[-70.748208,2.813937],[-70.734824,2.782518],[-70.684491,2.869412],[-70.499748,2.784533],[-70.281467,2.941965],[-70.263406,3.062914],[-70.308519,3.083946],[-70.248549,3.159368],[-70.163955,3.186292],[-70.159872,3.22771],[-70.129254,3.204275],[-70.116025,3.290161],[-70.151139,3.347884],[-70.119745,3.416639],[-70.068612,3.424623],[-70.082771,3.525496],[-69.962985,3.505006],[-69.8941,3.566449],[-69.86666,3.530612],[-69.722044,3.56862],[-69.65812,3.532472],[-69.612412,3.686339],[-69.474281,3.715742],[-69.430718,3.68608],[-69.279538,3.72892],[-69.183549,3.652103],[-69.105776,3.655824],[-69.090299,3.609367],[-69.040638,3.655204],[-68.962426,3.640941],[-68.937776,3.707345],[-68.804477,3.690137],[-68.810135,3.72799],[-68.744222,3.736206],[-68.688799,3.797805],[-68.546353,3.795944],[-68.438453,3.873071],[-68.444938,3.91263],[-68.372539,3.923585],[-68.355538,4.019858],[-68.267895,4.002728],[-68.252366,3.943222],[-68.188106,3.973169],[-68.183481,3.922112],[-68.092737,4.005441],[-68.048709,3.955935],[-68.013414,3.998464],[-67.999126,3.936375],[-67.950705,3.957485],[-67.876962,3.922732],[-67.716932,4.039878],[-67.631759,3.761865],[-67.499829,3.717914],[-67.403917,3.504464],[-67.304647,3.425709],[-67.395804,3.266572],[-67.838619,2.88613],[-67.855931,2.789753],[-67.751028,2.842102],[-67.626591,2.813421],[-67.575586,2.691103],[-67.500294,2.675342],[-67.325421,2.47463],[-67.189718,2.394377],[-67.17375,2.336448],[-67.217262,2.266064],[-67.177833,2.154495],[-67.114633,2.102999],[-67.132616,1.99081],[-66.980894,1.665946],[-66.875061,1.22251],[-67.086107,1.176002],[-67.073601,1.541199],[-67.117165,1.709793],[-67.340614,2.090106],[-67.424639,2.138114],[-67.59295,2.054811],[-67.820843,1.784001],[-67.928846,1.74129],[-68.031786,1.777515],[-68.111109,1.942415],[-68.192189,2.014891],[-68.280246,1.829398],[-68.163302,1.721291],[-69.352403,1.720206],[-69.541952,1.772709],[-69.856171,1.707675],[-69.852192,1.05942],[-69.749665,1.090529],[-69.716024,1.058593],[-69.478261,1.06066],[-69.418161,1.028621],[-69.338786,1.064122],[-69.152389,0.867803],[-69.192258,0.728949],[-69.141201,0.668177],[-69.162337,0.631435],[-69.297057,0.618103],[-69.302148,0.65655],[-69.362557,0.640944],[-69.47808,0.732825],[-69.619157,0.650659],[-69.694682,0.668746],[-69.805321,0.606941],[-70.054246,0.588131],[-70.068044,-0.160144],[-69.933634,-0.314347],[-69.619751,-0.524566],[-69.584223,-0.644559],[-69.628381,-0.733442],[-69.532599,-0.93405],[-69.442863,-1.008361],[-69.448159,-1.092077],[-69.399454,-1.182717]]]}}]}