{"type": "FeatureCollection", "features": [{"type": "Feature", "properties": {"MPIO_CCDGO": "41001", "MPIO_CNMBR": "NEIVA"}, "geometry": {"type": "Point", "coordinates": [-75.2819, 2.9273]}}, {"type": "Feature", "properties": {"MPIO_CCDGO": "41006", "MPIO_CNMBR": "ACEVEDO"}, "geometry": {"type": "Point", "coordinates": [-75.8988, 1.8174]}}, {"type": "Feature", "properties": {"MPIO_CCDGO": "41013", "MPIO_CNMBR": "AGRADO"}, "geometry": {"type": "Point", "coordinates": [-75.7725, 2.1589]}}, {"type": "Feature", "properties": {"MPIO_CCDGO": "41016", "MPIO_CNMBR": "AIPE"}, "geometry": {"type": "Point", "coordinates": [-75.2394, 3.2236]}}, {"type": "Feature", "properties": {"MPIO_CCDGO": "41020", "MPIO_CNMBR": "ALGECIRAS"}, "geometry": {"type": "Point", "coordinates": [-75.3186, 2.5236]}}, {"type": "Feature", "properties": {"MPIO_CCDGO": "41026", "MPIO_CNMBR": "ALTAMIRA"}, "geometry": {"type": "Point", "coordinates": [-75.7833, 2.0667]}}, {"type": "Feature", "properties": {"MPIO_CCDGO": "41078", "MPIO_CNMBR": "BARAYA"}, "geometry": {"type": "Point", "coordinates": [-74.9744, 3.1583]}}, {"type": "Feature", "properties": {"MPIO_CCDGO": "41132", "MPIO_CNMBR": "CAMPOALEGRE"}, "geometry": {"type": "Point", "coordinates": [-75.3333, 2.6833]}}, {"type": "Feature", "properties": {"MPIO_CCDGO": "41206", "MPIO_CNMBR": "COLOMBIA"}, "geometry": {"type": "Point", "coordinates": [-74.8667, 3.3833]}}, {"type": "Feature", "properties": {"MPIO_CCDGO": "41244", "MPIO_CNMBR": "ELÍAS"}, "geometry": {"type": "Point", "coordinates": [-75.7167, 2.0333]}}, {"type": "Feature", "properties": {"MPIO_CCDGO": "41298", "MPIO_CNMBR": "GARZÓN"}, "geometry": {"type": "Point", "coordinates": [-75.6247, 2.1978]}}, {"type": "Feature", "properties": {"MPIO_CCDGO": "41306", "MPIO_CNMBR": "GIGANTE"}, "geometry": {"type": "Point", "coordinates": [-75.55, 2.3833]}}, {"type": "Feature", "properties": {"MPIO_CCDGO": "41319", "MPIO_CNMBR": "GUADALUPE"}, "geometry": {"type": "Point", "coordinates": [-75.5, 2.0]}}, {"type": "Feature", "properties": {"MPIO_CCDGO": "41349", "MPIO_CNMBR": "HOBO"}, "geometry": {"type": "Point", "coordinates": [-75.4406, 2.5558]}}, {"type": "Feature", "properties": {"MPIO_CCDGO": "41357", "MPIO_CNMBR": "IQUIRA"}, "geometry": {"type": "Point", "coordinates": [-75.6333, 2.6333]}}, {"type": "Feature", "properties": {"MPIO_CCDGO": "41359", "MPIO_CNMBR": "ISNOS"}, "geometry": {"type": "Point", "coordinates": [-76.2322, 1.9383]}}, {"type": "Feature", "properties": {"MPIO_CCDGO": "41378", "MPIO_CNMBR": "LA ARGENTINA"}, "geometry": {"type": "Point", "coordinates": [-75.9667, 2.2167]}}, {"type": "Feature", "properties": {"MPIO_CCDGO": "41396", "MPIO_CNMBR": "LA PLATA"}, "geometry": {"type": "Point", "coordinates": [-75.8958, 2.3875]}}, {"type": "Feature", "properties": {"MPIO_CCDGO": "41483", "MPIO_CNMBR": "NÁTAGA"}, "geometry": {"type": "Point", "coordinates": [-75.7167, 2.4167]}}, {"type": "Feature", "properties": {"MPIO_CCDGO": "41503", "MPIO_CNMBR": "OPORAPA"}, "geometry": {"type": "Point", "coordinates": [-75.9667, 2.05]}}, {"type": "Feature", "properties": {"MPIO_CCDGO": "41518", "MPIO_CNMBR": "PAICOL"}, "geometry": {"type": "Point", "coordinates": [-75.8333, 2.5]}}, {"type": "Feature", "properties": {"MPIO_CCDGO": "41524", "MPIO_CNMBR": "PALERMO"}, "geometry": {"type": "Point", "coordinates": [-75.1833, 3.1333]}}, {"type": "Feature", "properties": {"MPIO_CCDGO": "41530", "MPIO_CNMBR": "PALESTINA"}, "geometry": {"type": "Point", "coordinates": [-76.0833, 1.75]}}, {"type": "Feature", "properties": {"MPIO_CCDGO": "41548", "MPIO_CNMBR": "PITAL"}, "geometry": {"type": "Point", "coordinates": [-75.7833, 2.3833]}}, {"type": "Feature", "properties": {"MPIO_CCDGO": "41551", "MPIO_CNMBR": "PITALITO"}, "geometry": {"type": "Point", "coordinates": [-76.0467, 1.8519]}}, {"type": "Feature", "properties": {"MPIO_CCDGO": "41615", "MPIO_CNMBR": "RIVERA"}, "geometry": {"type": "Point", "coordinates": [-75.25, 2.7833]}}, {"type": "Feature", "properties": {"MPIO_CCDGO": "41660", "MPIO_CNMBR": "SALADOBLANCO"}, "geometry": {"type": "Point", "coordinates": [-76.0167, 1.9833]}}, {"type": "Feature", "properties": {"MPIO_CCDGO": "41668", "MPIO_CNMBR": "SAN AGUSTÍN"}, "geometry": {"type": "Point", "coordinates": [-76.2733, 1.8919]}}, {"type": "Feature", "properties": {"MPIO_CCDGO": "41676", "MPIO_CNMBR": "SANTA MARÍA"}, "geometry": {"type": "Point", "coordinates": [-74.85, 3.0]}}, {"type": "Feature", "properties": {"MPIO_CCDGO": "41770", "MPIO_CNMBR": "SUAZA"}, "geometry": {"type": "Point", "coordinates": [-75.8, 1.9667]}}, {"type": "Feature", "properties": {"MPIO_CCDGO": "41791", "MPIO_CNMBR": "TARQUI"}, "geometry": {"type": "Point", "coordinates": [-75.8167, 2.1]}}, {"type": "Feature", "properties": {"MPIO_CCDGO": "41797", "MPIO_CNMBR": "TESALIA"}, "geometry": {"type": "Point", "coordinates": [-75.7333, 2.4833]}}, {"type": "Feature", "properties": {"MPIO_CCDGO": "41799", "MPIO_CNMBR": "TELLO"}, "geometry": {"type": "Point", "coordinates": [-75.1333, 3.0667]}}, {"type": "Feature", "properties": {"MPIO_CCDGO": "41801", "MPIO_CNMBR": "TERUEL"}, "geometry": {"type": "Point", "coordinates": [-75.5667, 2.7333]}}, {"type": "Feature", "properties": {"MPIO_CCDGO": "41807", "MPIO_CNMBR": "TIMANÁ"}, "geometry": {"type": "Point", "coordinates": [-75.9333, 1.9667]}}, {"type": "Feature", "properties": {"MPIO_CCDGO": "41872", "MPIO_CNMBR": "VILLAVIEJA"}, "geometry": {"type": "Point", "coordinates": [-75.2167, 3.2333]}}, {"type": "Feature", "properties": {"MPIO_CCDGO": "41885", "MPIO_CNMBR": "YAGUARÁ"}, "geometry": {"type": "Point", "coordinates": [-75.5, 2.6667]}}]}